ORBCOMM FM24 [-]        
1 25478U 98053D   24097.93963839  .00001093  00000+0  42558-3 0  9992
2 25478  45.0076 173.3191 0002963 232.0847 127.9733 14.35466497334709
ORBCOMM FM25 [-]        
1 25479U 98053E   24097.90545757  .00000987  00000+0  38902-3 0  9994
2 25479  45.0069 171.7219 0005542 230.9964 129.0390 14.35447543334992
ORBCOMM FM26 [-]        
1 25480U 98053F   24097.89925899  .00000812  00000+0  33226-3 0  9994
2 25480  45.0064 165.7313 0007724 245.2852 114.7191 14.34917393334934
ORBCOMM FM27 [+]        
1 25481U 98053G   24097.89319201  .00001078  00000+0  42062-3 0  9992
2 25481  45.0053 172.0445 0001875 257.8384 102.2253 14.35428467334920
ORBCOMM FM28 [-]        
1 25482U 98053H   24097.75090471  .00000962  00000+0  37721-3 0  9990
2 25482  45.0055 111.2963 0006033 275.6076  84.4084 14.35869278335574
ORBCOMM FM30 [-]        
1 25980U 99065A   24097.79486585  .00001023  00000+0  40466-3 0  9995
2 25980  45.0334 351.7199 0006742 344.9463  15.1183 14.35061397271718
ORBCOMM FM31 [-]        
1 25981U 99065B   24097.96932676  .00000928  00000+0  37146-3 0  9996
2 25981  45.0246 344.6136 0003864   8.6276 351.4637 14.35066082271290
ORBCOMM FM32 [+]        
1 25982U 99065C   24097.85710688  .00000931  00000+0  38031-3 0  9990
2 25982  45.0178 358.7040 0006418   7.9463 352.1484 14.34036904271919
